[{"OBJECT_NAME":"EZIE-C","OBJECT_ID":"2025-052AR","EPOCH":"2026-03-09T16:54:14.963904","MEAN_MOTION":14.96297342,"ECCENTRICITY":0.00032112,"INCLINATION":97.6981,"RA_OF_ASC_NODE":322.3863,"ARG_OF_PERICENTER":161.3597,"MEAN_ANOMALY":198.7743,"EPHEMERIS_TYPE":0,"CLASSIFICATION_TYPE":"U","NORAD_CAT_ID":63249,"ELEMENT_SET_NO":999,"REV_AT_EPOCH":5378,"BSTAR":0.0007072062,"MEAN_MOTION_DOT":7.941e-5,"MEAN_MOTION_DDOT":0},{"OBJECT_NAME":"CZ-4C DEB","OBJECT_ID":"2016-049F","EPOCH":"2026-03-09T07:30:38.295072","MEAN_MOTION":14.98603573,"ECCENTRICITY":0.00676497,"INCLINATION":98.3214,"RA_OF_ASC_NODE":204.4397,"ARG_OF_PERICENTER":163.6943,"MEAN_ANOMALY":196.6477,"EPHEMERIS_TYPE":0,"CLASSIFICATION_TYPE":"U","NORAD_CAT_ID":43601,"ELEMENT_SET_NO":999,"REV_AT_EPOCH":61767,"BSTAR":0.0021508763,"MEAN_MOTION_DOT":0.00027067,"MEAN_MOTION_DDOT":0}]
